{
  "type": "FeatureCollection",
  "features": [
    {
      "type": "Feature",
      "properties": {
        "norad_id": 36173,
        "name": "FENGYUN 1C DEB",
        "group": "fengyun-1c-debris",
        "lat": 76.45079432081965,
        "lon": 159.03380648350233,
        "alt_km": 798.4366852475723,
        "timestamp": "2025-12-10T23:33:13.104509+00:00",
        "meta_object_name": "FENGYUN 1C DEB",
        "meta_object_id": "1999-025DSW",
        "meta_epoch": "2025-12-10T02:51:11.203488",
        "meta_mean_motion": 14.25169859,
        "meta_eccentricity": 0.0146399,
        "meta_inclination": 98.2133,
        "meta_ra_of_asc_node": 301.4038,
        "meta_arg_of_pericenter": 192.9431,
        "meta_mean_anomaly": 166.7976,
        "meta_ephemeris_type": 0,
        "meta_classification_type": "U",
        "meta_norad_cat_id": 36173,
        "meta_element_set_no": 999,
        "meta_rev_at_epoch": 59053,
        "meta_bstar": 0.0004108008,
        "meta_mean_motion_dot": 1.038e-05,
        "meta_mean_motion_ddot": 0,
        "tle_line1": "1 36173U 99025DSW 25344.11887967  .00001038  00000+0  41080-3 0  9997",
        "tle_line2": "2 36173  98.2133 301.4038 0146399 192.9431 166.7976 14.25169859590532"
      },
      "geometry": {
        "type": "Point",
        "coordinates": [
          159.03380648350233,
          76.45079432081965
        ]
      }
    },
    {
      "type": "Feature",
      "properties": {
        "norad_id": 36180,
        "name": "FENGYUN 1C DEB",
        "group": "fengyun-1c-debris",
        "lat": 68.10566111052503,
        "lon": -109.59742560842562,
        "alt_km": 772.1335977408908,
        "timestamp": "2025-12-10T23:33:13.104518+00:00",
        "meta_object_name": "FENGYUN 1C DEB",
        "meta_object_id": "1999-025DTD",
        "meta_epoch": "2025-12-05T21:21:22.276224",
        "meta_mean_motion": 14.20680074,
        "meta_eccentricity": 0.02106275,
        "meta_inclination": 98.4572,
        "meta_ra_of_asc_node": 43.7979,
        "meta_arg_of_pericenter": 50.8055,
        "meta_mean_anomaly": 311.1621,
        "meta_ephemeris_type": 0,
        "meta_classification_type": "U",
        "meta_norad_cat_id": 36180,
        "meta_element_set_no": 999,
        "meta_rev_at_epoch": 70486,
        "meta_bstar": 0.00091841135,
        "meta_mean_motion_dot": 2.432e-05,
        "meta_mean_motion_ddot": 0,
        "tle_line1": "1 36180U 99025DTD 25339.88984116  .00002432  00000+0  91841-3 0  9996",
        "tle_line2": "2 36180  98.4572  43.7979 0210627  50.8055 311.1621 14.20680074704867"
      },
      "geometry": {
        "type": "Point",
        "coordinates": [
          -109.59742560842562,
          68.10566111052503
        ]
      }
    },
    {
      "type": "Feature",
      "properties": {
        "norad_id": 36182,
        "name": "FENGYUN 1C DEB",
        "group": "fengyun-1c-debris",
        "lat": -74.4269538302289,
        "lon": 57.39167750994512,
        "alt_km": 798.820447495109,
        "timestamp": "2025-12-10T23:33:13.104527+00:00",
        "meta_object_name": "FENGYUN 1C DEB",
        "meta_object_id": "1999-025DTF",
        "meta_epoch": "2025-12-09T12:53:00.896352",
        "meta_mean_motion": 14.3467895,
        "meta_eccentricity": 0.0021656,
        "meta_inclination": 99.088,
        "meta_ra_of_asc_node": 270.9251,
        "meta_arg_of_pericenter": 84.6861,
        "meta_mean_anomaly": 275.6792,
        "meta_ephemeris_type": 0,
        "meta_classification_type": "U",
        "meta_norad_cat_id": 36182,
        "meta_element_set_no": 999,
        "meta_rev_at_epoch": 87911,
        "meta_bstar": 0.0023397,
        "meta_mean_motion_dot": 6.596e-05,
        "meta_mean_motion_ddot": 0,
        "tle_line1": "1 36182U 99025DTF 25343.53681593  .00006596  00000+0  23397-2 0  9993",
        "tle_line2": "2 36182  99.0880 270.9251 0021656  84.6861 275.6792 14.34678950879116"
      },
      "geometry": {
        "type": "Point",
        "coordinates": [
          57.39167750994512,
          -74.4269538302289
        ]
      }
    },
    {
      "type": "Feature",
      "properties": {
        "norad_id": 36186,
        "name": "FENGYUN 1C DEB",
        "group": "fengyun-1c-debris",
        "lat": -3.1984957867798376,
        "lon": -151.497901564858,
        "alt_km": 526.4293691776675,
        "timestamp": "2025-12-10T23:33:13.104536+00:00",
        "meta_object_name": "FENGYUN 1C DEB",
        "meta_object_id": "1999-025DTK",
        "meta_epoch": "2025-12-06T21:01:26.135616",
        "meta_mean_motion": 15.09149878,
        "meta_eccentricity": 0.00147295,
        "meta_inclination": 98.9889,
        "meta_ra_of_asc_node": 203.1836,
        "meta_arg_of_pericenter": 349.9169,
        "meta_mean_anomaly": 20.7197,
        "meta_ephemeris_type": 0,
        "meta_classification_type": "U",
        "meta_norad_cat_id": 36186,
        "meta_element_set_no": 999,
        "meta_rev_at_epoch": 61482,
        "meta_bstar": 0.015546812,
        "meta_mean_motion_dot": 0.00256087,
        "meta_mean_motion_ddot": 0,
        "tle_line1": "1 36186U 99025DTK 25340.87599694  .00256087  00000+0  15547-1 0  9990",
        "tle_line2": "2 36186  98.9889 203.1836 0014729 349.9169  20.7197 15.09149878614823"
      },
      "geometry": {
        "type": "Point",
        "coordinates": [
          -151.497901564858,
          -3.1984957867798376
        ]
      }
    },
    {
      "type": "Feature",
      "properties": {
        "norad_id": 36188,
        "name": "FENGYUN 1C DEB",
        "group": "fengyun-1c-debris",
        "lat": 21.38254596341665,
        "lon": -91.2682677471604,
        "alt_km": 720.663446579827,
        "timestamp": "2025-12-10T23:33:13.104545+00:00",
        "meta_object_name": "FENGYUN 1C DEB",
        "meta_object_id": "1999-025DTM",
        "meta_epoch": "2025-12-10T12:57:49.254624",
        "meta_mean_motion": 14.60596101,
        "meta_eccentricity": 0.00475237,
        "meta_inclination": 98.5852,
        "meta_ra_of_asc_node": 84.8835,
        "meta_arg_of_pericenter": 311.6351,
        "meta_mean_anomaly": 48.0782,
        "meta_ephemeris_type": 0,
        "meta_classification_type": "U",
        "meta_norad_cat_id": 36188,
        "meta_element_set_no": 999,
        "meta_rev_at_epoch": 88020,
        "meta_bstar": 0.0038666321,
        "meta_mean_motion_dot": 0.00019095,
        "meta_mean_motion_ddot": 0,
        "tle_line1": "1 36188U 99025DTM 25344.54015341  .00019095  00000+0  38666-2 0  9996",
        "tle_line2": "2 36188  98.5852  84.8835 0047523 311.6351  48.0782 14.60596101880202"
      },
      "geometry": {
        "type": "Point",
        "coordinates": [
          -91.2682677471604,
          21.38254596341665
        ]
      }
    },
    {
      "type": "Feature",
      "properties": {
        "norad_id": 36198,
        "name": "FENGYUN 1C DEB",
        "group": "fengyun-1c-debris",
        "lat": -34.812162535723324,
        "lon": -171.65069655970302,
        "alt_km": 878.1556020636835,
        "timestamp": "2025-12-10T23:33:13.104554+00:00",
        "meta_object_name": "FENGYUN 1C DEB",
        "meta_object_id": "1999-025DTX",
        "meta_epoch": "2025-12-06T12:47:36.841920",
        "meta_mean_motion": 14.07854185,
        "meta_eccentricity": 0.00971183,
        "meta_inclination": 98.6232,
        "meta_ra_of_asc_node": 10.1569,
        "meta_arg_of_pericenter": 132.8086,
        "meta_mean_anomaly": 228.1301,
        "meta_ephemeris_type": 0,
        "meta_classification_type": "U",
        "meta_norad_cat_id": 36198,
        "meta_element_set_no": 999,
        "meta_rev_at_epoch": 63500,
        "meta_bstar": 0.002549244,
        "meta_mean_motion_dot": 4.475e-05,
        "meta_mean_motion_ddot": 0,
        "tle_line1": "1 36198U 99025DTX 25340.53306530  .00004475  00000+0  25492-2 0  9994",
        "tle_line2": "2 36198  98.6232  10.1569 0097118 132.8086 228.1301 14.07854185635009"
      },
      "geometry": {
        "type": "Point",
        "coordinates": [
          -171.65069655970302,
          -34.812162535723324
        ]
      }
    },
    {
      "type": "Feature",
      "properties": {
        "norad_id": 36199,
        "name": "FENGYUN 1C DEB",
        "group": "fengyun-1c-debris",
        "lat": -71.54299900688532,
        "lon": 32.109219140545754,
        "alt_km": 855.3032184068434,
        "timestamp": "2025-12-10T23:33:13.104562+00:00",
        "meta_object_name": "FENGYUN 1C DEB",
        "meta_object_id": "1999-025DTY",
        "meta_epoch": "2025-12-09T21:01:24.472416",
        "meta_mean_motion": 14.29643136,
        "meta_eccentricity": 0.00929805,
        "meta_inclination": 98.2902,
        "meta_ra_of_asc_node": 5.1538,
        "meta_arg_of_pericenter": 75.8738,
        "meta_mean_anomaly": 285.2756,
        "meta_ephemeris_type": 0,
        "meta_classification_type": "U",
        "meta_norad_cat_id": 36199,
        "meta_element_set_no": 999,
        "meta_rev_at_epoch": 64939,
        "meta_bstar": 0.00037118247,
        "meta_mean_motion_dot": 9.56e-06,
        "meta_mean_motion_ddot": 0,
        "tle_line1": "1 36199U 99025DTY 25343.87597769  .00000956  00000+0  37118-3 0  9990",
        "tle_line2": "2 36199  98.2902   5.1538 0092980  75.8738 285.2756 14.29643136649393"
      },
      "geometry": {
        "type": "Point",
        "coordinates": [
          32.109219140545754,
          -71.54299900688532
        ]
      }
    }
  ]
}